H1 CPF 01  gfz 2021 07 25 00  7061 tandemx   
H2 1003001  6202 36605    2021 07 25 00 59 42 2021 07 30 00 00 42   120 1 1  0 0 0
H9
10 0 59422  12942.000000  0    3928171.758   2040325.922  -5286204.105
10 0 59422  13062.000000  0    3386381.223   1515640.131  -5811725.806
10 0 59422  13182.000000  0    2776518.896    974738.796  -6235706.015
10 0 59422  13302.000000  0    2109012.322    428119.433  -6550825.495
10 0 59422  13422.000000  0    1395446.062   -113830.628  -6751654.079
10 0 59422  13542.000000  0     648362.147   -641027.440  -6834736.039
10 0 59422  13662.000000  0    -118958.602  -1143874.028  -6798642.588
10 0 59422  13782.000000  0    -892726.805  -1613429.896  -6643992.365
10 0 59422  13902.000000  0   -1658886.021  -2041565.823  -6373443.040
10 0 59422  14022.000000  0   -2403362.577  -2421102.643  -5991650.562
10 0 59422  14142.000000  0   -3112318.490  -2745930.489  -5505197.232
10 0 59422  14262.000000  0   -3772406.225  -3011108.672  -4922490.532
10 0 59422  14382.000000  0   -4371021.898  -3212944.095  -4253629.260
10 0 59422  14502.000000  0   -4896549.571  -3349044.927  -3510238.647
10 0 59422  14622.000000  0   -5338593.143  -3418349.261  -2705276.964
10 0 59422  14742.000000  0   -5688190.367  -3421127.474  -1852814.633
10 0 59422  14862.000000  0   -5938002.630  -3358957.287   -967789.433
10 0 59422  14982.000000  0   -6082476.151  -3234672.064    -65742.466
10 0 59422  15102.000000  0   -6117969.835  -3052282.818    837460.147
10 0 59422  15222.000000  0   -6042846.165  -2816876.029   1725915.103
10 0 59422  15342.000000  0   -5857519.924  -2534488.496   2583972.213
10 0 59422  15462.000000  0   -5564465.331  -2211963.465   3396517.751
10 0 59422  15582.000000  0   -5168182.901  -1856792.390   4149248.570
10 0 59422  15702.000000  0   -4675122.869  -1476944.143   4828928.576
10 0 59422  15822.000000  0   -4093571.858  -1080688.802   5423620.859
10 0 59422  15942.000000  0   -3433506.336   -676420.127   5922895.387
10 0 59422  16062.000000  0   -2706413.701   -272478.698   6318009.188
10 0 59422  16182.000000  0   -1925084.417    123019.424   6602053.893
10 0 59422  16302.000000  0   -1103381.710    502343.486   6770069.275
10 0 59422  16422.000000  0    -255993.715    858297.291   6819124.407
10 0 59422  16542.000000  0     601829.074   1184354.632   6748365.199
10 0 59422  16662.000000  0    1454547.300   1474778.727   6559028.433
10 0 59422  16782.000000  0    2286613.431   1724723.510   6254421.117
10 0 59422  16902.000000  0    3082754.575   1930314.594   5839866.563
10 0 59422  17022.000000  0    3828254.972   2088709.707   5322617.323
10 0 59422  17142.000000  0    4509231.224   2198137.070   4711733.691
10 0 59422  17262.000000  0    5112895.773   2257912.276   4017931.939
10 0 59422  17382.000000  0    5627807.285   2268432.171   3253400.985
10 0 59422  17502.000000  0    6044095.794   2231144.084   2431586.784
10 0 59422  17622.000000  0    6353659.763   2148493.811   1566955.889
10 0 59422  17742.000000  0    6550332.258   2023851.444    674735.511
10 0 59422  17862.000000  0    6630008.163   1861416.853   -229362.089
10 0 59422  17982.000000  0    6590729.936   1666108.750  -1129425.768
10 0 59422  18102.000000  0    6432729.328   1443438.103  -2009633.242
10 0 59422  18222.000000  0    6158428.230   1199369.911  -2854536.149
10 0 59422  18342.000000  0    5772393.440    940177.325  -3649337.478
10 0 59422  18462.000000  0    5281248.971    672292.254  -4380152.708
10 0 59422  18582.000000  0    4693549.170    402155.952  -5034250.502
10 0 59422  18702.000000  0    4019617.532    136073.187  -5600267.820
10 0 59422  18822.000000  0    3271355.823   -119926.225  -6068398.340
10 0 59422  18942.000000  0    2462026.483   -360216.216  -6430552.614
10 0 59422  19062.000000  0    1606013.363   -579691.487  -6680485.605
10 0 59422  19182.000000  0     718567.467   -773870.601  -6813894.202
10 0 59422  19302.000000  0    -184462.141   -938983.226  -6828483.937
10 0 59422  19422.000000  0   -1086905.338  -1072040.107  -6724002.889
10 0 59422  19542.000000  0   -1972553.358  -1170885.790  -6502246.283
10 0 59422  19662.000000  0   -2825443.836  -1234232.776  -6167028.405
10 0 59422  19782.000000  0   -3630141.615  -1261676.937  -5724123.405
10 0 59422  19902.000000  0   -4372015.700  -1253694.477  -5181177.780
10 0 59422  20022.000000  0   -5037507.705  -1211619.581  -4547589.648
10 0 59422  20142.000000  0   -5614384.623  -1137603.362  -3834357.235
10 0 59422  20262.000000  0   -6091972.851  -1034554.594  -3053897.999
10 0 59422  20382.000000  0   -6461367.567   -906062.984  -2219838.851
10 0 59422  20502.000000  0   -6715611.176   -756306.396  -1346781.155
10 0 59422  20622.000000  0   -6849837.200   -589944.467   -450044.188
10 0 59422  20742.000000  0   -6861373.624   -411999.151    454609.547
10 0 59422  20862.000000  0   -6749801.957   -227726.861   1351258.081
10 0 59422  20982.000000  0   -6516972.529    -42485.971   2224108.973
10 0 59422  21102.000000  0   -6166973.211    138398.000   3057786.735
10 0 59422  21222.000000  0   -5706052.716    309765.948   3837612.033
10 0 59422  21342.000000  0   -5142500.411    466753.737   4549865.722
10 0 59422  21462.000000  0   -4486486.996    604912.179   5182032.419
10 0 59422  21582.000000  0   -3749870.701    720316.292   5723018.837
10 0 59422  21702.000000  0   -2945974.133    809661.004   6163345.469
10 0 59422  21822.000000  0   -2089335.441    870340.800   6495308.041
10 0 59422  21942.000000  0   -1195439.231    900513.223   6713106.927
10 0 59422  22062.000000  0    -280432.988    899144.123   6812941.400
10 0 59422  22182.000000  0     639164.630    866033.759   6793070.979
10 0 59422  22302.000000  0    1546760.804    801823.877   6653843.645
10 0 59422  22422.000000  0    2425986.719    707985.751   6397690.267
10 0 59422  22542.000000  0    3260992.243    586788.927   6029085.511
10 0 59422  22662.000000  0    4036733.805    441251.143   5554474.676
10 0 59422  22782.000000  0    4739248.908    275070.458   4982166.599
10 0 59422  22902.000000  0    5355913.151     92539.804   4322194.455
10 0 59422  23022.000000  0    5875676.031   -101553.290   3586145.156
10 0 59422  23142.000000  0    6289269.635   -302039.306   2786958.272
10 0 59422  23262.000000  0    6589384.238   -503490.303   1938697.130
10 0 59422  23382.000000  0    6770805.118   -700352.440   1056298.004
10 0 59422  23502.000000  0    6830510.503   -887082.316    155301.898
10 0 59422  23622.000000  0    6767726.225  -1058284.434   -748427.943
10 0 59422  23742.000000  0    6583932.773  -1208846.685  -1638994.886
10 0 59422  23862.000000  0    6282827.577  -1334069.545  -2500756.789
10 0 59422  23982.000000  0    5870242.540  -1429786.142  -3318607.035
10 0 59422  24102.000000  0    5354020.628  -1492470.131  -4078242.383
10 0 59422  24222.000000  0    4743854.986  -1519328.339  -4766412.534
10 0 59422  24342.000000  0    4051095.734  -1508376.818  -5371147.190
10 0 59422  24462.000000  0    3288528.414  -1458499.466  -5881957.100
10 0 59422  24582.000000  0    2470130.321  -1369487.187  -6290005.325
10 0 59422  24702.000000  0    1610811.223  -1242056.687  -6588249.094
10 0 59422  24822.000000  0     726141.242  -1077849.775  -6771550.717
10 0 59422  24942.000000  0    -167928.070   -879413.970  -6836756.674
10 0 59422  25062.000000  0   -1055345.652   -650163.376  -6782745.500
10 0 59422  25182.000000  0   -1920242.253   -394321.269  -6610445.367
10 0 59422  25302.000000  0   -2747208.087   -116844.164  -6322819.022
10 0 59422  25422.000000  0   -3521560.812    176670.389  -5924817.782
10 0 59422  25542.000000  0   -4229603.331    480092.079  -5423306.603
10 0 59422  25662.000000  0   -4858867.429    786880.097  -4826956.232
10 0 59422  25782.000000  0   -5398338.207   1090217.531  -4146105.981
10 0 59422  25902.000000  0   -5838656.415   1383157.261  -3392595.042
10 0 59422  26022.000000  0   -6172291.663   1658774.541  -2579564.276
10 0 59422  26142.000000  0   -6393683.472   1910323.071  -1721231.701
10 0 59422  26262.000000  0   -6499346.519   2131391.714   -832644.814
10 0 59422  26382.000000  0   -6487935.847   2316057.391     70587.100
10 0 59422  26502.000000  0   -6360268.843   2459029.762    972574.182
10 0 59422  26622.000000  0   -6119303.453   2555784.830   1857433.638
10 0 59422  26742.000000  0   -5770073.106   2602683.732   2709578.777
10 0 59422  26862.000000  0   -5319579.707   2597072.729   3514001.832
10 0 59422  26982.000000  0   -4776647.821   2537361.812   4256545.464
10 0 59422  27102.000000  0   -4151743.366   2423080.506   4924155.079
10 0 59422  27222.000000  0   -3456763.926   2254910.141   5505108.279
10 0 59422  27342.000000  0   -2704804.768   2034692.312   5989219.073
10 0 59422  27462.000000  0   -1909904.290   1765412.750   6368012.766
10 0 59422  27582.000000  0   -1086775.992   1451160.802   6634868.327
10 0 59422  27702.000000  0    -250533.057   1097066.108   6785126.636
10 0 59422  27822.000000  0     583588.843    709213.829   6816166.120
10 0 59422  27942.000000  0    1400508.187    294539.803   6727445.486
10 0 59422  28062.000000  0    2185568.930   -139292.777   6520512.579
10 0 59422  28182.000000  0    2924802.678   -584034.244   6198980.147
10 0 59422  28302.000000  0    3605178.643  -1031004.184   5768467.368
10 0 59422  28422.000000  0    4214836.931  -1471259.605   5236507.061
10 0 59422  28542.000000  0    4743299.714  -1895773.310   4612419.435
10 0 59422  28662.000000  0    5181658.203  -2295618.120   3907155.004
10 0 59422  28782.000000  0    5522732.160  -2662154.408   3133106.094
10 0 59422  28902.000000  0    5761195.289  -2987216.197   2303888.606
10 0 59422  29022.000000  0    5893663.895  -3263291.054   1434100.641
10 0 59422  29142.000000  0    5918748.729  -3483690.563    539061.040
10 0 59422  29262.000000  0    5837065.439  -3642705.333   -365468.292
10 0 59422  29382.000000  0    5651205.519  -3735741.527  -1263568.501
99
